ONEWEB-0401             
1 50481U 21132N   23223.78465257  .00000042  00000+0  74968-4 0  9996
2 50481  87.9271 182.2960 0001640  79.4494 280.6823 13.18685648 85776
ONEWEB-0402             
1 50482U 21132P   23223.14390503  .00000050  00000+0  95133-4 0  9994
2 50482  87.9278 182.4669 0001554  94.5187 265.6122 13.18684978 85717
ONEWEB-0403             
1 50483U 21132Q   23223.62233463 -.00000268  00000+0 -71335-3 0  9999
2 50483  87.9250 182.3422 0001874  74.4114 285.7225 13.18686065 85734
ONEWEB-0404             
1 50484U 21132R   23223.49086267 -.00000273  00000+0 -80638-3 0  9995
2 50484  87.8882 227.7742 0002033  68.2325 291.9020 13.11416482 80562
ONEWEB-0405             
1 50485U 21132S   23222.75504440  .00000037  00000+0  61408-4 0  9993
2 50485  87.9273 182.4998 0001525  78.7441 281.3862 13.18686993 86025
ONEWEB-0406             
1 50486U 21132T   23222.94366444  .00000049  00000+0  91266-4 0  9993
2 50486  87.9269 182.4628 0002188  67.2618 292.8745 13.18687799 85689
ONEWEB-0407             
1 50487U 21132U   23223.62024964  .00000013  00000+0  11040-5 0  9992
2 50487  87.9271 182.3365 0001900  77.6867 282.4478 13.18687044 85717
ONEWEB-0409             
1 50488U 21132V   23222.95467973 -.00000364  00000+0 -10630-2 0  9991
2 50488  87.8885 227.8966 0002430  74.3706 285.7690 13.11414085 80392
